OBJECT_NAME,OBJECT_ID,EPOCH,MEAN_MOTION,ECCENTRICITY,INCLINATION,RA_OF_ASC_NODE,ARG_OF_PERICENTER,MEAN_ANOMALY,EPHEMERIS_TYPE,CLASSIFICATION_TYPE,NORAD_CAT_ID,ELEMENT_SET_NO,REV_AT_EPOCH,BSTAR,MEAN_MOTION_DOT,MEAN_MOTION_DDOT
BEIDOU-2 IGSO-5 (C10),2011-073A,2026-06-24T15:46:07.226112,1.00272136,.01142233,47.6633,271.4526,222.0346,107.5350,0,U,37948,999,5320,0,-.196E-5,0
LUCH 5A (SDCM/PRN 140),2011-074B,2026-06-29T12:06:51.628608,1.00272720,.0002737,8.7838,73.6290,37.0406,155.5636,0,U,37951,999,5317,0,-.46E-6,0
BEIDOU-2 G5 (C05),2012-008A,2026-06-28T23:39:29.352960,1.00276642,.00085197,3.6028,69.6321,275.8995,345.1785,0,U,38091,999,5248,0,.64E-6,0
BEIDOU-2 M3 (C11),2012-018A,2026-06-29T00:02:32.565984,1.86230042,.0020334,55.7467,304.4763,273.2748,86.4903,0,U,38250,999,9616,0,-.84E-6,0
BEIDOU-2 M4 (C12),2012-018B,2026-06-27T20:38:38.167008,1.86229628,.00115226,55.6479,303.7280,274.3517,85.5111,0,U,38251,999,9614,0,-.92E-6,0
SES-5 (EGNOS/PRN 136),2012-036A,2026-06-29T07:18:09.436032,1.00268942,.0002202,0.0474,316.3173,137.6711,297.9149,0,U,38652,999,4457,0,.44E-6,0
BEIDOU-2 M6 (C14),2012-050B,2026-06-25T23:00:55.897920,1.86231117,.0013516,56.5518,62.6042,358.2268,1.8099,0,U,38775,999,9347,0,-.89E-6,0
GSAT-10 (GAGAN/PRN 128),2012-051B,2026-06-29T12:48:23.308704,1.00271375,.000819,0.0558,254.6839,197.2312,100.8198,0,U,38779,999,5022,0,-.154E-5,0
GPS BIIF-3  (PRN 24),2012-053A,2026-06-29T06:45:44.684352,2.00567753,.0181003,53.5879,143.1039,65.9496,295.8899,0,U,38833,999,9968,0,.15E-6,0
GSAT0103 (GALILEO-FM3),2012-055A,2026-06-26T20:39:51.533568,1.70473558,.00046383,55.8122,101.2802,306.6783,53.2530,0,U,38857,999,8517,0,-.37E-6,0
BEIDOU-2 G6 (C02),2012-059A,2026-06-28T23:42:21.677760,1.00271113,.00096159,4.4509,73.4021,329.2064,314.0896,0,U,38953,999,5002,0,-.168E-5,0
LUCH 5B (SDCM/PRN 125),2012-061A,2026-06-28T23:51:38.907648,1.00272815,.0002943,10.5076,49.7645,135.7548,73.2281,0,U,38977,999,4972,0,-.134E-5,0
COSMOS 2485 (747),2013-019A,2026-06-28T15:23:45.661344,2.13103395,.00228927,65.4259,73.2198,232.6501,127.1904,0,U,39155,999,10252,0,-.37E-6,0
GPS BIIF-4  (PRN 27),2013-023A,2026-06-27T15:40:48.196704,2.00563560,.01414211,54.4958,268.5471,51.0520,310.2484,0,U,39166,999,9609,0,-.25E-6,0
IRNSS-1A,2013-034A,2026-06-28T17:51:28.404864,1.00278385,.00175851,35.7453,63.7052,182.9470,353.0661,0,U,39199,999,4748,0,.53E-6,0
GPS BIIF-5  (PRN 30),2014-008A,2026-06-28T15:39:12.868992,2.00560606,.0084212,53.6562,148.8522,231.4139,127.7949,0,U,39533,999,8991,0,.24E-6,0
ASTRA 5B (EGNOS/PRN 123),2014-011B,2026-06-29T07:23:23.933760,1.00273689,.0002189,0.0497,330.9530,113.3545,327.4143,0,U,39617,999,4478,0,.148E-5,0
COSMOS 2492 (754),2014-012A,2026-06-28T14:24:30.100032,2.13103394,.00102677,65.2906,313.5472,322.2306,37.6876,0,U,39620,999,9548,0,-.74E-6,0
IRNSS-1B,2014-017A,2026-06-28T17:43:38.630784,1.00270538,.00228324,28.9045,240.2040,192.5986,165.0167,0,U,39635,999,4490,0,.15E-5,0
LUCH 5V (SDCM/PRN 141),2014-023A,2026-06-28T23:42:21.677760,1.00271326,.00025532,5.1615,69.6311,52.1822,245.6113,0,U,39727,999,4447,0,-.262E-5,0
GPS BIIF-6  (PRN 06),2014-026A,2026-06-29T10:14:09.752064,2.00560271,.0038111,56.4919,331.0412,326.2826,33.4667,0,U,39741,999,8878,0,-.93E-6,0
COSMOS 2500 (755),2014-032A,2026-06-27T08:41:34.003968,2.13106005,.00077512,65.2259,313.3360,186.3038,173.6757,0,U,40001,999,9367,0,-.81E-6,0
GPS BIIF-7  (PRN 09),2014-045A,2026-06-28T12:30:25.283808,2.00559298,.0033785,55.3602,88.0134,118.2932,242.0599,0,U,40105,999,8630,0,-.52E-6,0
GSAT0201 (GALILEO 5),2014-050A,2026-06-28T04:43:10.013088,1.85520215,.16761388,48.8631,272.9846,179.8176,180.3141,0,U,40128,999,7852,0,-.47E-6,0
GSAT0202 (GALILEO 6),2014-050B,2026-06-28T10:51:05.410944,1.85520734,.16774002,48.8797,272.0598,180.5593,179.2896,0,U,40129,999,8069,0,-.43E-6,0
IRNSS-1C,2014-061A,2026-06-28T19:41:49.058880,1.00274876,.00221059,6.5464,88.7100,4.4529,202.1283,0,U,40269,999,4280,0,-.156E-5,0
GPS BIIF-8  (PRN 03),2014-068A,2026-06-27T21:23:54.391200,2.00577023,.00672701,56.9949,30.5424,71.0132,289.7753,0,U,40294,999,8542,0,-.74E-6,0
COSMOS 2501 (702K),2014-075A,2026-06-28T02:14:52.596384,2.13101409,.00226466,63.6168,189.9945,212.6319,147.2733,0,U,40315,999,9008,0,.93E-6,0
GPS BIIF-9  (PRN 26),2015-013A,2026-06-28T12:43:45.333984,2.00550799,.01098251,53.1672,203.7083,40.2188,320.6559,0,U,40534,999,8205,0,.79E-6,0
GSAT0203 (GALILEO 7),2015-017A,2026-06-28T08:35:20.684256,1.70476391,.00021619,56.7824,341.2913,267.9865,91.9808,0,U,40544,999,6939,0,-.92E-6,0
GSAT0204 (GALILEO 8),2015-017B,2026-06-28T00:39:02.769696,1.70475922,.00022247,56.7895,341.3189,238.6181,121.3527,0,U,40545,999,3243,0,-.93E-6,0
