BEIDOU-2 IGSO-5         
1 37948U 11073A   26175.65702808 -.00000196  00000+0  00000+0 0  9995
2 37948  47.6633 271.4526 0114223 222.0346 107.5350  1.00272136 53204
LUCH-5A                 
1 37951U 11074B   26180.50476422 -.00000046  00000+0  00000+0 0  9994
2 37951   8.7838  73.6290 0002737  37.0406 155.5636  1.00272720 53175
BEIDOU-2 G5             
1 38091U 12008A   26179.98575640  .00000064  00000+0  00000+0 0  9999
2 38091   3.6028  69.6321 0008519 275.8995 345.1785  1.00276642 52487
BEIDOU-2 M3             
1 38250U 12018A   26180.00176581 -.00000084  00000+0  00000+0 0  9996
2 38250  55.7467 304.4763 0020334 273.2748  86.4903  1.86230042 96164
BEIDOU-2 M4             
1 38251U 12018B   26178.86016397 -.00000092  00000+0  00000+0 0  9995
2 38251  55.6479 303.7280 0011522 274.3517  85.5111  1.86229628 96145
SES-5                   
1 38652U 12036A   26180.30427588  .00000044  00000+0  00000+0 0  9996
2 38652   0.0474 316.3173 0002202 137.6711 297.9149  1.00268942 44570
BEIDOU-2 M6             
1 38775U 12050B   26176.95898030 -.00000089  00000+0  00000+0 0  9998
2 38775  56.5518  62.6042 0013516 358.2268   1.8099  1.86231117 93472
GSAT-10                 
1 38779U 12051B   26180.53360311 -.00000154  00000+0  00000+0 0  9991
2 38779   0.0558 254.6839 0008190 197.2312 100.8198  1.00271375 50226
NAVSTAR 67 (USA 239)    
1 38833U 12053A   26180.28176718  .00000015  00000+0  00000+0 0  9997
2 38833  53.5879 143.1039 0181003  65.9496 295.8899  2.00567753 99684
GSAT0103 (GALILEO-FM3)  
1 38857U 12055A   26177.86101312 -.00000037  00000+0  00000+0 0  9998
2 38857  55.8122 101.2802 0004638 306.6783  53.2530  1.70473558 85173
BEIDOU-2 G6             
1 38953U 12059A   26179.98775090 -.00000168  00000+0  00000+0 0  9999
2 38953   4.4509  73.4021 0009615 329.2064 314.0896  1.00271113 50020
LUCH-5B                 
1 38977U 12061A   26179.99420032 -.00000134  00000+0  00000+0 0  9995
2 38977  10.5076  49.7645 0002943 135.7548  73.2281  1.00272815 49722
COSMOS 2485 [GLONASS-M] 
1 39155U 13019A   26179.64150071 -.00000037  00000+0  00000+0 0  9995
2 39155  65.4259  73.2198 0022892 232.6501 127.1904  2.13103395102529
NAVSTAR 68 (USA 242)    
1 39166U 13023A   26178.65333561 -.00000025  00000+0  00000+0 0  9996
2 39166  54.4958 268.5471 0141421  51.0520 310.2484  2.00563560 96094
IRNSS-1A                
1 39199U 13034A   26179.74407876  .00000053  00000+0  00000+0 0  9996
2 39199  35.7453  63.7052 0017585 182.9470 353.0661  1.00278385 47481
NAVSTAR 69 (USA 248)    
1 39533U 14008A   26179.65223228  .00000024  00000+0  00000+0 0  9995
2 39533  53.6562 148.8522 0084212 231.4139 127.7949  2.00560606 89913
ASTRA 5B                
1 39617U 14011B   26180.30791590  .00000148  00000+0  00000+0 0  9995
2 39617   0.0497 330.9530 0002189 113.3545 327.4143  1.00273689 44786
COSMOS 2492 [GLONASS-M] 
1 39620U 14012A   26179.60034838 -.00000074  00000+0  00000+0 0  9995
2 39620  65.2906 313.5472 0010267 322.2306  37.6876  2.13103394 95488
IRNSS-1B                
1 39635U 14017A   26179.73864156  .00000150  00000+0  00000+0 0  9998
2 39635  28.9045 240.2040 0022832 192.5986 165.0167  1.00270538 44904
LUCH-5V                 
1 39727U 14023A   26179.98775090 -.00000262  00000+0  00000+0 0  9997
2 39727   5.1615  69.6311 0002553  52.1822 245.6113  1.00271326 44472
NAVSTAR 70 (USA 251)    
1 39741U 14026A   26180.42650176 -.00000093  00000+0  00000+0 0  9996
2 39741  56.4919 331.0412 0038111 326.2826  33.4667  2.00560271 88780
COSMOS 2500 [GLONASS-M] 
1 40001U 14032A   26178.36219912 -.00000081  00000+0  00000+0 0  9990
2 40001  65.2259 313.3360 0007751 186.3038 173.6757  2.13106005 93673
NAVSTAR 71 (USA 256)    
1 40105U 14045A   26179.52112597 -.00000052  00000+0  00000+0 0  9997
2 40105  55.3602  88.0134 0033785 118.2932 242.0599  2.00559298 86307
GSAT0201 (GALILEO 5)    
1 40128U 14050A   26179.19664367 -.00000047  00000+0  00000+0 0  9992
2 40128  48.8631 272.9846 1676138 179.8176 180.3141  1.85520215 78525
GSAT0202 (GALILEO 6)    
1 40129U 14050B   26179.45214596 -.00000043  00000+0  00000+0 0  9993
2 40129  48.8797 272.0598 1677400 180.5593 179.2896  1.85520734 80690
IRNSS-1C                
1 40269U 14061A   26179.82070670 -.00000156  00000+0  00000+0 0  9999
2 40269   6.5464  88.7100 0022105   4.4529 202.1283  1.00274876 42803
NAVSTAR 72 (USA 258)    
1 40294U 14068A   26178.89160175 -.00000074  00000+0  00000+0 0  9999
2 40294  56.9949  30.5424 0067270  71.0132 289.7753  2.00577023 85423
COSMOS 2501 [GLONASS-K] 
1 40315U 14075A   26179.09366431  .00000093  00000+0  00000+0 0  9997
2 40315  63.6168 189.9945 0022646 212.6319 147.2733  2.13101409 90089
NAVSTAR 73 (USA 260)    
1 40534U 15013A   26179.53038581  .00000079  00000+0  00000+0 0  9998
2 40534  53.1672 203.7083 0109825  40.2188 320.6559  2.00550799 82055
GSAT0203 (GALILEO 7)    
1 40544U 15017A   26179.35787829 -.00000092  00000+0  00000+0 0  9995
2 40544  56.7824 341.2913 0002161 267.9865  91.9808  1.70476391 69397
GSAT0204 (GALILEO 8)    
1 40545U 15017B   26179.02711539 -.00000093  00000+0  00000+0 0  9996
2 40545  56.7895 341.3189 0002224 238.6181 121.3527  1.70475922 32438
